$$SOE
2461288.500000000, A.D. 2026-Sep-05 00:00:00.0000, -3.356852713730856E+08, -1.565998343914232E+08, -1.513930500603765E+07,
2461295.500000000, A.D. 2026-Sep-12 00:00:00.0000, -3.306179532366275E+08, -1.639506653457447E+08, -1.424432566410730E+07,
2461302.500000000, A.D. 2026-Sep-19 00:00:00.0000, -3.252319906777340E+08, -1.711434495221416E+08, -1.333561789237889E+07,
2461309.500000000, A.D. 2026-Sep-26 00:00:00.0000, -3.195285807672036E+08, -1.781691525067434E+08, -1.241389379868969E+07,
2461316.500000000, A.D. 2026-Oct-03 00:00:00.0000, -3.135089295118383E+08, -1.850184849060191E+08, -1.147988376801389E+07,
2461323.500000000, A.D. 2026-Oct-10 00:00:00.0000, -3.071742644017988E+08, -1.916818761771715E+08, -1.053433920482977E+07,
2461330.500000000, A.D. 2026-Oct-17 00:00:00.0000, -3.005258484895498E+08, -1.981494470990709E+08, -9.578035493069768E+06,
2461337.500000000, A.D. 2026-Oct-24 00:00:00.0000, -2.935649961988454E+08, -2.044109807443709E+08, -8.611775205734864E+06,
2461344.500000000, A.D. 2026-Oct-31 00:00:00.0000, -2.862930910223483E+08, -2.104558918479982E+08, -7.636391610024899E+06,
2461351.500000000, A.D. 2026-Nov-07 00:00:00.0000, -2.787116050673539E+08, -2.162731943165583E+08, -6.652752528228596E+06,
2461358.500000000, A.D. 2026-Nov-14 00:00:00.0000, -2.708221205952692E+08, -2.218514657992882E+08, -5.661764539829746E+06,
2461365.500000000, A.D. 2026-Nov-21 00:00:00.0000, -2.626263557684525E+08, -2.271788084362906E+08, -4.664377347523525E+06,
2461372.500000000, A.D. 2026-Nov-28 00:00:00.0000, -2.541261960704147E+08, -2.322428085822801E+08, -3.661588512048513E+06,
2461379.500000000, A.D. 2026-Dec-05 00:00:00.0000, -2.453237283291068E+08, -2.370304959474512E+08, -2.654448998741344E+06,
2461386.500000000, A.D. 2026-Dec-12 00:00:00.0000, -2.362212778215592E+08, -2.415282988232679E+08, -1.644069360969156E+06,
2461393.500000000, A.D. 2026-Dec-19 00:00:00.0000, -2.268214510968747E+08, -2.457219951612949E+08, -6.316264591365606E+05,
2461400.500000000, A.D. 2026-Dec-26 00:00:00.0000, -2.171271855350162E+08, -2.495966601516928E+08, 3.816291448384225E+05,
2461407.500000000, A.D. 2027-Jan-02 00:00:00.0000, -2.071418063906803E+08, -2.531366102870501E+08, 1.394364983330056E+06,
2461414.500000000, A.D. 2027-Jan-09 00:00:00.0000, -1.968690924116733E+08, -2.563253437158471E+08, 2.405157554317296E+06,
2461421.500000000, A.D. 2027-Jan-16 00:00:00.0000, -1.863133514176727E+08, -2.591454767451136E+08, 3.412482146921873E+06,
2461428.500000000, A.D. 2027-Jan-23 00:00:00.0000, -1.754795074651467E+08, -2.615786764658735E+08, 4.414701480563447E+06,
2461435.500000000, A.D. 2027-Jan-30 00:00:00.0000, -1.643732013763362E+08, -2.636055895823723E+08, 5.410052987485096E+06,
2461442.500000000, A.D. 2027-Feb-06 00:00:00.0000, -1.530009065200187E+08, -2.652057672832574E+08, 6.396634561300248E+06,
2461449.500000000, A.D. 2027-Feb-13 00:00:00.0000, -1.413700630246811E+08, -2.663575853181559E+08, 7.372388729768708E+06,
2461456.500000000, A.D. 2027-Feb-20 00:00:00.0000, -1.294892359846121E+08, -2.670381607396993E+08, 8.335085202949479E+06,
2461463.500000000, A.D. 2027-Feb-27 00:00:00.0000, -1.173683000158775E+08, -2.672232695925330E+08, 9.282301189608276E+06,
2461470.500000000, A.D. 2027-Mar-06 00:00:00.0000, -1.050186515441597E+08, -2.668872652381331E+08, 1.021139913508862E+07,
2461477.500000000, A.D. 2027-Mar-13 00:00:00.0000, -9.245345555800456E+07, -2.660029976014001E+08, 1.111950196365112E+07,
2461484.500000000, A.D. 2027-Mar-20 00:00:00.0000, -7.968793389618313E+07, -2.645417374834271E+08, 1.200346563378243E+07,
2461491.500000000, A.D. 2027-Mar-27 00:00:00.0000, -6.673970167134492E+07, -2.624731111277124E+08, 1.285984873556648E+07,
2461498.500000000, A.D. 2027-Apr-03 00:00:00.0000, -5.362915933830463E+07, -2.597650515335751E+08, 1.368487894755530E+07,
2461505.500000000, A.D. 2027-Apr-10 00:00:00.0000, -4.037994896423858E+07, -2.563837753560641E+08, 1.447441628400081E+07,
2461512.500000000, A.D. 2027-Apr-17 00:00:00.0000, -2.701948409262926E+07, -2.522937974362507E+08, 1.522391322620784E+07,
2461519.500000000, A.D. 2027-Apr-24 00:00:00.0000, -1.357956301008241E+07, -2.474579991653286E+08, 1.592837207508296E+07,
2461526.500000000, A.D. 2027-May-01 00:00:00.0000, -9.707484729029830E+04, -2.418377721124398E+08, 1.658230022695768E+07,
2461533.500000000, A.D. 2027-May-08 00:00:00.0000, 1.338519329995893E+07, -2.353932644278970E+08, 1.717966469225670E+07,
2461540.500000000, A.D. 2027-May-15 00:00:00.0000, 2.681764123603796E+07, -2.280837658510498E+08, 1.771384817206603E+07,
2461547.500000000, A.D. 2027-May-22 00:00:00.0000, 4.014283122773645E+07, -2.198682810623475E+08, 1.817760987798757E+07,
2461554.500000000, A.D. 2027-May-29 00:00:00.0000, 5.329436788159632E+07, -2.107063520904304E+08, 1.856305551971953E+07,
2461561.500000000, A.D. 2027-Jun-05 00:00:00.0000, 6.619570962488303E+07, -2.005591990761130E+08, 1.886162363807819E+07,
2461568.500000000, A.D. 2027-Jun-12 00:00:00.0000, 7.875896094491692E+07, -1.893912641085348E+08, 1.906409828816645E+07,
2461575.500000000, A.D. 2027-Jun-19 00:00:00.0000, 9.088373240250267E+07, -1.771722533643312E+08, 1.916066122999834E+07,
2461582.500000000, A.D. 2027-Jun-26 00:00:00.0000, 1.024562062315074E+08, -1.638797722675672E+08, 1.914100066551658E+07,
2461589.500000000, A.D. 2027-Jul-03 00:00:00.0000, 1.133486104500387E+08, -1.495026306545055E+08, 1.899449743578705E+07,
2461596.500000000, A.D. 2027-Jul-10 00:00:00.0000, 1.234193818550404E+08, -1.340448474915401E+08, 1.871051233319566E+07,
2461603.500000000, A.D. 2027-Jul-17 00:00:00.0000, 1.325143777280397E+08, -1.175302920374457E+08, 1.827879794370794E+07,
2461610.500000000, A.D. 2027-Jul-24 00:00:00.0000, 1.404695550022693E+08, -1.000077457770424E+08, 1.769005247143730E+07,
2461617.500000000, A.D. 2027-Jul-31 00:00:00.0000, 1.471155354479308E+08, -8.155595124878122E+07, 1.693661802010617E+07,
2461624.500000000, A.D. 2027-Aug-07 00:00:00.0000, 1.522843618810222E+08, -6.228794748106270E+07, 1.601329901717793E+07,
2461631.500000000, A.D. 2027-Aug-14 00:00:00.0000, 1.558184689306226E+08, -4.235373780674675E+07, 1.491823744253612E+07,
2461638.500000000, A.D. 2027-Aug-21 00:00:00.0000, 1.575814261407399E+08, -2.194020086547539E+07, 1.365373536943875E+07,
2461645.500000000, A.D. 2027-Aug-28 00:00:00.0000, 1.574694095290023E+08, -1.267269198496887E+06, 1.222687697495665E+07,
2461652.500000000, A.D. 2027-Sep-04 00:00:00.0000, 1.554217770722831E+08, 1.942011716373020E+07, 1.064979157104629E+07,
2461659.500000000, A.D. 2027-Sep-11 00:00:00.0000, 1.514288295255257E+08, 3.986393396316069E+07, 8.939433803332187E+06,
2461666.500000000, A.D. 2027-Sep-18 00:00:00.0000, 1.455350636469108E+08, 5.980753878288777E+07, 7.116841938912511E+06,
2461673.500000000, A.D. 2027-Sep-25 00:00:00.0000, 1.378370257003582E+08, 7.901057286749776E+07, 5.205949987144459E+06,
2461680.500000000, A.D. 2027-Oct-02 00:00:00.0000, 1.284760335881729E+08, 9.726197664971562E+07, 3.232133640320778E+06,
2461687.500000000, A.D. 2027-Oct-09 00:00:00.0000, 1.176271364689123E+08, 1.143892617515371E+08, 1.220722972640574E+06,
2461694.500000000, A.D. 2027-Oct-16 00:00:00.0000, 1.054863208071248E+08, 1.302631360461917E+08, -8.043012676598355E+05,
2461701.500000000, A.D. 2027-Oct-23 00:00:00.0000, 9.225798588151546E+07, 1.447976321908878E+08, -2.821282171901926E+06,
2461708.500000000, A.D. 2027-Oct-30 00:00:00.0000, 7.814421987072167E+07, 1.579466818158974E+08, -4.811478563542582E+06,
2461715.500000000, A.D. 2027-Nov-06 00:00:00.0000, 6.333669198739780E+07, 1.696984360869845E+08, -6.759300299715243E+06,
2461722.500000000, A.D. 2027-Nov-13 00:00:00.0000, 4.801131169432885E+07, 1.800685934126481E+08, -8.652261791547760E+06,
2461729.500000000, A.D. 2027-Nov-20 00:00:00.0000, 3.232535288378919E+07, 1.890937185258921E+08, -1.048074534472778E+07,
2461736.500000000, A.D. 2027-Nov-27 00:00:00.0000, 1.641651463582325E+07, 1.968251893015679E+08, -1.223765857942560E+07,
2461743.500000000, A.D. 2027-Dec-04 00:00:00.0000, 4.033436729006715E+05, 2.033240881877109E+08, -1.391805151867808E+07,
2461750.500000000, A.D. 2027-Dec-11 00:00:00.0000, -1.561348919881937E+07, 2.086571209019359E+08, -1.551873820700090E+07,
2461757.500000000, A.D. 2027-Dec-18 00:00:00.0000, -3.154945476844547E+07, 2.128935025443593E+08, -1.703794939185178E+07,
2461764.500000000, A.D. 2027-Dec-25 00:00:00.0000, -4.733425470098480E+07, 2.161026800487460E+08, -1.847502900119141E+07,
2461771.500000000, A.D. 2028-Jan-01 00:00:00.0000, -6.290991782694745E+07, 2.183527367059207E+08, -1.983017796598273E+07,
$$EOE